{"type": "FeatureCollection", "features": [ {"type": "Feature", "properties": {"norad_id": 33799, "name": "COSMOS 2251 DEB", "group": "cosmos-2251-debris", "lat": 71.44805132996316, "lon": 156.75193137376516, "alt_km": 624.2908752055882, "timestamp": "2025-12-04T09:47:37.912322+00:00", "meta": {"OBJECT_NAME": "COSMOS 2251 DEB", "OBJECT_ID": "1993-036AQ", "EPOCH": "2025-12-03T17:45:10.387584", "MEAN_MOTION": 14.79326072, "ECCENTRICITY": 0.0024498, "INCLINATION": 74.0316, "RA_OF_ASC_NODE": 99.5041, "ARG_OF_PERICENTER": 172.6343, "MEAN_ANOMALY": 310.0961, "EPHEMERIS_TYPE": 0, "CLASSIFICATION_TYPE": "U", "NORAD_CAT_ID": 33799, "ELEMENT_SET_NO": 999, "REV_AT_EPOCH": 88678, "BSTAR": 0.0024028741, "MEAN_MOTION_DOT": 0.00017996, "MEAN_MOTION_DDOT": 0}, "tle": {"line1": "1 33799U 93036AQ  25337.73970356  .00017996  00000+0  24029-2 0  9992", "line2": "2 33799  74.0316  99.5041 0024498 172.6343 310.0961 14.79326072886783"}}, "geometry": {"type": "Point", "coordinates": [156.75193137376516, 71.44805132996316]}}, {"type": "Feature", "properties": {"norad_id": 33805, "name": "COSMOS 2251 DEB", "group": "cosmos-2251-debris", "lat": 34.80448926104394, "lon": 135.70038267337506, "alt_km": 656.1096488109952, "timestamp": "2025-12-04T09:47:37.912339+00:00", "meta": {"OBJECT_NAME": "COSMOS 2251 DEB", "OBJECT_ID": "1993-036AW", "EPOCH": "2025-12-03T10:04:50.326752", "MEAN_MOTION": 14.57820384, "ECCENTRICITY": 0.00606078, "INCLINATION": 74.0305, "RA_OF_ASC_NODE": 329.061, "ARG_OF_PERICENTER": 160.6444, "MEAN_ANOMALY": 199.7043, "EPHEMERIS_TYPE": 0, "CLASSIFICATION_TYPE": "U", "NORAD_CAT_ID": 33805, "ELEMENT_SET_NO": 999, "REV_AT_EPOCH": 89091, "BSTAR": 0.00036503529, "MEAN_MOTION_DOT": 1.683e-05, "MEAN_MOTION_DDOT": 0}, "tle": {"line1": "1 33805U 93036AW  25337.42002693  .00001683  00000+0  36504-3 0  9994", "line2": "2 33805  74.0305 329.0610 0060607 160.6444 199.7043 14.57820384890917"}}, "geometry": {"type": "Point", "coordinates": [135.70038267337506, 34.80448926104394]}}, {"type": "Feature", "properties": {"norad_id": 33811, "name": "COSMOS 2251 DEB", "group": "cosmos-2251-debris", "lat": 34.744529899848686, "lon": -28.463266851595428, "alt_km": 528.1797467222668, "timestamp": "2025-12-04T09:47:37.912350+00:00", "meta": {"OBJECT_NAME": "COSMOS 2251 DEB", "OBJECT_ID": "1993-036BC", "EPOCH": "2025-12-03T10:24:22.140576", "MEAN_MOTION": 15.0478652, "ECCENTRICITY": 0.00307709, "INCLINATION": 73.8372, "RA_OF_ASC_NODE": 321.9509, "ARG_OF_PERICENTER": 44.095, "MEAN_ANOMALY": 115.5441, "EPHEMERIS_TYPE": 0, "CLASSIFICATION_TYPE": "U", "NORAD_CAT_ID": 33811, "ELEMENT_SET_NO": 999, "REV_AT_EPOCH": 89878, "BSTAR": 0.0016687279, "MEAN_MOTION_DOT": 0.00023837, "MEAN_MOTION_DDOT": 0}, "tle": {"line1": "1 33811U 93036BC  25337.43358959  .00023837  00000+0  16687-2 0  9995", "line2": "2 33811  73.8372 321.9509 0030770  44.0950 115.5441 15.04786520898785"}}, "geometry": {"type": "Point", "coordinates": [-28.463266851595428, 34.744529899848686]}}, {"type": "Feature", "properties": {"norad_id": 33815, "name": "COSMOS 2251 DEB", "group": "cosmos-2251-debris", "lat": 56.61039522066188, "lon": -11.846609997780662, "alt_km": 516.3181728861491, "timestamp": "2025-12-04T09:47:37.912365+00:00", "meta": {"OBJECT_NAME": "COSMOS 2251 DEB", "OBJECT_ID": "1993-036BG", "EPOCH": "2025-12-03T22:26:38.052960", "MEAN_MOTION": 15.14959866, "ECCENTRICITY": 0.00042463, "INCLINATION": 73.9553, "RA_OF_ASC_NODE": 195.0305, "ARG_OF_PERICENTER": 242.6191, "MEAN_ANOMALY": 178.7773, "EPHEMERIS_TYPE": 0, "CLASSIFICATION_TYPE": "U", "NORAD_CAT_ID": 33815, "ELEMENT_SET_NO": 999, "REV_AT_EPOCH": 88237, "BSTAR": 0.010930329, "MEAN_MOTION_DOT": 0.00209975, "MEAN_MOTION_DDOT": 0}, "tle": {"line1": "1 33815U 93036BG  25337.93516265  .00209975  00000+0  10930-1 0  9993", "line2": "2 33815  73.9553 195.0305 0004246 242.6191 178.7773 15.14959866882370"}}, "geometry": {"type": "Point", "coordinates": [-11.846609997780662, 56.61039522066188]}}, {"type": "Feature", "properties": {"norad_id": 33816, "name": "COSMOS 2251 DEB", "group": "cosmos-2251-debris", "lat": 54.34803493214818, "lon": 143.27018264588605, "alt_km": 901.0420846561738, "timestamp": "2025-12-04T09:47:37.912377+00:00", "meta": {"OBJECT_NAME": "COSMOS 2251 DEB", "OBJECT_ID": "1993-036BH", "EPOCH": "2025-12-03T16:08:09.349152", "MEAN_MOTION": 13.8176123, "ECCENTRICITY": 0.02652759, "INCLINATION": 73.8937, "RA_OF_ASC_NODE": 120.7633, "ARG_OF_PERICENTER": 135.4556, "MEAN_ANOMALY": 226.823, "EPHEMERIS_TYPE": 0, "CLASSIFICATION_TYPE": "U", "NORAD_CAT_ID": 33816, "ELEMENT_SET_NO": 999, "REV_AT_EPOCH": 84548, "BSTAR": 0.00080898461, "MEAN_MOTION_DOT": 1.109e-05, "MEAN_MOTION_DDOT": 0}, "tle": {"line1": "1 33816U 93036BH  25337.67233043  .00001109  00000+0  80898-3 0  9996", "line2": "2 33816  73.8937 120.7633 0265275 135.4556 226.8230 13.81761230845482"}}, "geometry": {"type": "Point", "coordinates": [143.27018264588605, 54.34803493214818]}}, {"type": "Feature", "properties": {"norad_id": 33818, "name": "COSMOS 2251 DEB", "group": "cosmos-2251-debris", "lat": 33.71576070371151, "lon": -7.533328156272275, "alt_km": 511.73544556812794, "timestamp": "2025-12-04T09:47:37.912387+00:00", "meta": {"OBJECT_NAME": "COSMOS 2251 DEB", "OBJECT_ID": "1993-036BK", "EPOCH": "2025-12-03T20:29:57.105024", "MEAN_MOTION": 15.11461193, "ECCENTRICITY": 0.00290986, "INCLINATION": 74.0753, "RA_OF_ASC_NODE": 184.5933, "ARG_OF_PERICENTER": 176.2128, "MEAN_ANOMALY": 195.6815, "EPHEMERIS_TYPE": 0, "CLASSIFICATION_TYPE": "U", "NORAD_CAT_ID": 33818, "ELEMENT_SET_NO": 999, "REV_AT_EPOCH": 89728, "BSTAR": 0.0036681733, "MEAN_MOTION_DOT": 0.00063201, "MEAN_MOTION_DDOT": 0}, "tle": {"line1": "1 33818U 93036BK  25337.85413316  .00063201  00000+0  36682-2 0  9993", "line2": "2 33818  74.0753 184.5933 0029098 176.2128 195.6815 15.11461193897280"}}, "geometry": {"type": "Point", "coordinates": [-7.533328156272275, 33.71576070371151]}}, {"type": "Feature", "properties": {"norad_id": 33819, "name": "COSMOS 2251 DEB", "group": "cosmos-2251-debris", "lat": 36.786099886089744, "lon": 32.67516982856664, "alt_km": 742.5238142250619, "timestamp": "2025-12-04T09:47:37.912398+00:00", "meta": {"OBJECT_NAME": "COSMOS 2251 DEB", "OBJECT_ID": "1993-036BL", "EPOCH": "2025-12-03T18:19:03.858240", "MEAN_MOTION": 14.3217012, "ECCENTRICITY": 0.00887493, "INCLINATION": 74.1798, "RA_OF_ASC_NODE": 226.0808, "ARG_OF_PERICENTER": 90.1856, "MEAN_ANOMALY": 327.1067, "EPHEMERIS_TYPE": 0, "CLASSIFICATION_TYPE": "U", "NORAD_CAT_ID": 33819, "ELEMENT_SET_NO": 999, "REV_AT_EPOCH": 87367, "BSTAR": 0.00097630425, "MEAN_MOTION_DOT": 2.722e-05, "MEAN_MOTION_DDOT": 0}, "tle": {"line1": "1 33819U 93036BL  25337.76323910  .00002722  00000+0  97630-3 0  9996", "line2": "2 33819  74.1798 226.0808 0088749  90.1856 327.1067 14.32170120873671"}}, "geometry": {"type": "Point", "coordinates": [32.67516982856664, 36.786099886089744]}}, {"type": "Feature", "properties": {"norad_id": 33821, "name": "COSMOS 2251 DEB", "group": "cosmos-2251-debris", "lat": -71.25387657170793, "lon": 102.89008952383308, "alt_km": 494.8106879611041, "timestamp": "2025-12-04T09:47:37.912408+00:00", "meta": {"OBJECT_NAME": "COSMOS 2251 DEB", "OBJECT_ID": "1993-036BN", "EPOCH": "2025-12-03T21:32:49.010208", "MEAN_MOTION": 15.24506377, "ECCENTRICITY": 0.00541848, "INCLINATION": 74.0295, "RA_OF_ASC_NODE": 161.5173, "ARG_OF_PERICENTER": 197.4016, "MEAN_ANOMALY": 162.5329, "EPHEMERIS_TYPE": 0, "CLASSIFICATION_TYPE": "U", "NORAD_CAT_ID": 33821, "ELEMENT_SET_NO": 999, "REV_AT_EPOCH": 74866, "BSTAR": 0.0018774056, "MEAN_MOTION_DOT": 0.0004841, "MEAN_MOTION_DDOT": 0}, "tle": {"line1": "1 33821U 93036BN  25337.89778947  .00048410  00000+0  18774-2 0  9992", "line2": "2 33821  74.0295 161.5173 0054184 197.4016 162.5329 15.24506377748669"}}, "geometry": {"type": "Point", "coordinates": [102.89008952383308, -71.25387657170793]}}, {"type": "Feature", "properties": {"norad_id": 33822, "name": "COSMOS 2251 DEB", "group": "cosmos-2251-debris", "lat": 0.2352034400583952, "lon": 28.323027397954146, "alt_km": 824.9644703541908, "timestamp": "2025-12-04T09:47:37.912419+00:00", "meta": {"OBJECT_NAME": "COSMOS 2251 DEB", "OBJECT_ID": "1993-036BP", "EPOCH": "2025-12-03T17:56:46.730112", "MEAN_MOTION": 14.12999308, "ECCENTRICITY": 0.01540274, "INCLINATION": 74.0696, "RA_OF_ASC_NODE": 209.5553, "ARG_OF_PERICENTER": 257.9488, "MEAN_ANOMALY": 165.8405, "EPHEMERIS_TYPE": 0, "CLASSIFICATION_TYPE": "U", "NORAD_CAT_ID": 33822, "ELEMENT_SET_NO": 999, "REV_AT_EPOCH": 85927, "BSTAR": 0.0018690676, "MEAN_MOTION_DOT": 3.877e-05, "MEAN_MOTION_DDOT": 0}, "tle": {"line1": "1 33822U 93036BP  25337.74776308  .00003877  00000+0  18691-2 0  9992", "line2": "2 33822  74.0696 209.5553 0154027 257.9488 165.8405 14.12999308859279"}}, "geometry": {"type": "Point", "coordinates": [28.323027397954146, 0.2352034400583952]}}, {"type": "Feature", "properties": {"norad_id": 33823, "name": "COSMOS 2251 DEB", "group": "cosmos-2251-debris", "lat": 62.48497214048566, "lon": -162.16577052482344, "alt_km": 1001.0704175010869, "timestamp": "2025-12-04T09:47:37.912429+00:00", "meta": {"OBJECT_NAME": "COSMOS 2251 DEB", "OBJECT_ID": "1993-036BQ", "EPOCH": "2025-12-03T06:54:01.670112", "MEAN_MOTION": 13.98912755, "ECCENTRICITY": 0.0209252, "INCLINATION": 73.8087, "RA_OF_ASC_NODE": 165.8955, "ARG_OF_PERICENTER": 292.5793, "MEAN_ANOMALY": 252.1811, "EPHEMERIS_TYPE": 0, "CLASSIFICATION_TYPE": "U", "NORAD_CAT_ID": 33823, "ELEMENT_SET_NO": 999, "REV_AT_EPOCH": 85477, "BSTAR": 0.00098413, "MEAN_MOTION_DOT": 1.686e-05, "MEAN_MOTION_DDOT": 0}, "tle": {"line1": "1 33823U 93036BQ  25337.28751933  .00001686  00000+0  98413-3 0  9996", "line2": "2 33823  73.8087 165.8955 0209252 292.5793 252.1811 13.98912755854771"}}, "geometry": {"type": "Point", "coordinates": [-162.16577052482344, 62.48497214048566]}}]}